H1 CPF  1  DGF 2022 05 26 10  6461 larets     NONE      
H2   304206 5557    27944 2022 05 01 00 00 00 2022 05 08 00 00 00    30 1 1  0 0 0
H5  0.0650
H9
10 0 59700  72000.000000  0        501362.679      -6600658.231       2456051.886
10 0 59700  72030.000000  0        458218.790      -6678744.943       2246103.453
10 0 59700  72060.000000  0        414283.510      -6749864.092       2033858.930
10 0 59700  72090.000000  0        369632.129      -6813941.076       1819535.539
10 0 59700  72120.000000  0        324340.971      -6870908.853       1603352.599
10 0 59700  72150.000000  0        278487.274      -6920708.020       1385531.291
10 0 59700  72180.000000  0        232149.081      -6963286.880       1166294.421
10 0 59700  72210.000000  0        185405.122      -6998601.488        945866.182
10 0 59700  72240.000000  0        138334.695      -7026615.702        724471.918
10 0 59700  72270.000000  0         91017.557      -7047301.214        502337.887
10 0 59700  72300.000000  0         43533.799      -7060637.576        279691.017
10 0 59700  72330.000000  0         -4036.267      -7066612.218         56758.670
10 0 59700  72360.000000  0        -51612.223      -7065220.450       -166231.597
10 0 59700  72390.000000  0        -99113.666      -7056465.467       -389052.271
10 0 59700  72420.000000  0       -146460.324      -7040358.329       -611476.125
10 0 59700  72450.000000  0       -193572.171      -7016917.948       -833276.447
10 0 59700  72480.000000  0       -240369.547      -6986171.050      -1054227.283
10 0 59700  72510.000000  0       -286773.266      -6948152.145      -1274103.665
10 0 59700  72540.000000  0       -332704.738      -6902903.475      -1492681.848
10 0 59700  72570.000000  0       -378086.078      -6850474.963      -1709739.534
10 0 59700  72600.000000  0       -422840.220      -6790924.150      -1925056.107
10 0 59700  72630.000000  0       -466891.026      -6724316.122      -2138412.859
10 0 59700  72660.000000  0       -510163.402      -6650723.429      -2349593.210
10 0 59700  72690.000000  0       -552583.396      -6570225.997      -2558382.936
10 0 59700  72720.000000  0       -594078.315      -6482911.029      -2764570.380
10 0 59700  72750.000000  0       -634576.823      -6388872.904      -2967946.670
10 0 59700  72780.000000  0       -674009.046      -6288213.061      -3168305.931
10 0 59700  72810.000000  0       -712306.670      -6181039.879      -3365445.489
10 0 59700  72840.000000  0       -749403.044      -6067468.550      -3559166.078
10 0 59700  72870.000000  0       -785233.270      -5947620.939      -3749272.034
10 0 59700  72900.000000  0       -819734.296      -5821625.444      -3935571.490
10 0 59700  72930.000000  0       -852845.008      -5689616.848      -4117876.562
10 0 59700  72960.000000  0       -884506.318      -5551736.160      -4296003.530
10 0 59700  72990.000000  0       -914661.243      -5408130.462      -4469773.019
10 0 59700  73020.000000  0       -943254.992      -5258952.739      -4639010.170
10 0 59700  73050.000000  0       -970235.043      -5104361.708      -4803544.809
10 0 59700  73080.000000  0       -995551.216      -4944521.639      -4963211.607
10 0 59700  73110.000000  0      -1019155.747      -4779602.178      -5117850.241
10 0 59700  73140.000000  0      -1041003.354      -4609778.155      -5267305.542
10 0 59700  73170.000000  0      -1061051.305      -4435229.394      -5411427.644
10 0 59700  73200.000000  0      -1079259.476      -4256140.521      -5550072.121
10 0 59700  73230.000000  0      -1095590.414      -4072700.755      -5683100.124
10 0 59700  73260.000000  0      -1110009.383      -3885103.713      -5810378.508
10 0 59700  73290.000000  0      -1122484.424      -3693547.201      -5931779.955
10 0 59700  73320.000000  0      -1132986.396      -3498232.998      -6047183.093
10 0 59700  73350.000000  0      -1141489.023      -3299366.645      -6156472.604
10 0 59700  73380.000000  0      -1147968.932      -3097157.228      -6259539.330
10 0 59700  73410.000000  0      -1152405.687      -2891817.152      -6356280.373
10 0 59700  73440.000000  0      -1154781.828      -2683561.927      -6446599.180
10 0 59700  73470.000000  0      -1155082.892      -2472609.938      -6530405.634
10 0 59700  73500.000000  0      -1153297.442      -2259182.220      -6607616.135
10 0 59700  73530.000000  0      -1149417.089      -2043502.234      -6678153.671
10 0 59700  73560.000000  0      -1143436.505      -1825795.631      -6741947.887
10 0 59700  73590.000000  0      -1135353.440      -1606290.025      -6798935.149
10 0 59700  73620.000000  0      -1125168.734      -1385214.761      -6849058.600
10 0 59700  73650.000000  0      -1112886.317      -1162800.676      -6892268.210
10 0 59700  73680.000000  0      -1098513.217       -939279.870      -6928520.821
10 0 59700  73710.000000  0      -1082059.554       -714885.463      -6957780.186
10 0 59700  73740.000000  0      -1063538.533       -489851.362      -6980016.995
10 0 59700  73770.000000  0      -1042966.437       -264412.027      -6995208.906
10 0 59700  73800.000000  0      -1020362.608        -38802.235      -7003340.555
10 0 59700  73830.000000  0       -995749.434        186743.154      -7004403.584
10 0 59700  73860.000000  0       -969152.327        411989.435      -6998396.640
10 0 59700  73890.000000  0       -940599.695        636702.292      -6985325.387
10 0 59700  73920.000000  0       -910122.918        860648.043      -6965202.496
10 0 59700  73950.000000  0       -877756.310       1083593.870      -6938047.636
10 0 59700  73980.000000  0       -843537.088       1305308.049      -6903887.454
10 0 59700  74010.000000  0       -807505.329       1525560.188      -6862755.556
10 0 59700  74040.000000  0       -769703.930       1744121.455      -6814692.481
10 0 59700  74070.000000  0       -730178.559       1960764.813      -6759745.673
10 0 59700  74100.000000  0       -688977.603       2175265.249      -6697969.434
10 0 59700  74130.000000  0       -646152.111       2387400.006      -6629424.886
10 0 59700  74160.000000  0       -601755.742       2596948.810      -6554179.914
10 0 59700  74190.000000  0       -555844.695       2803694.092      -6472309.115
10 0 59700  74220.000000  0       -508477.652       3007421.221      -6383893.728
10 0 59700  74250.000000  0       -459715.701       3207918.721      -6289021.569
10 0 59700  74280.000000  0       -409622.267       3404978.493      -6187786.944
10 0 59700  74310.000000  0       -358263.034       3598396.026      -6080290.572
10 0 59700  74340.000000  0       -305705.868       3787970.610      -5966639.491
10 0 59700  74370.000000  0       -252020.733       3973505.542      -5846946.969
10 0 59700  74400.000000  0       -197279.607       4154808.340      -5721332.402
10 0 59700  74430.000000  0       -141556.394       4331690.941      -5589921.207
10 0 59700  74460.000000  0        -84926.830       4503969.904      -5452844.709
10 0 59700  74490.000000  0        -27468.392       4671466.609      -5310240.021
10 0 59700  74520.000000  0         30739.798       4834007.443      -5162249.918
10 0 59700  74550.000000  0         89617.079       4991423.993      -5009022.704
10 0 59700  74580.000000  0        149081.347       5143553.228      -4850712.074
10 0 59700  74610.000000  0        209049.165       5290237.671      -4687476.973
10 0 59700  74640.000000  0        269435.868       5431325.582      -4519481.437
10 0 59700  74670.000000  0        330155.673       5566671.116      -4346894.448
10 0 59700  74700.000000  0        391121.793       5696134.485      -4169889.762
10 0 59700  74730.000000  0        452246.548       5819582.118      -3988645.748
10 0 59700  74760.000000  0        513441.483       5936886.803      -3803345.216
10 0 59700  74790.000000  0        574617.486       6047927.836      -3614175.236
10 0 59700  74820.000000  0        635684.903       6152591.155      -3421326.959
10 0 59700  74850.000000  0        696553.666       6250769.471      -3224995.425
10 0 59700  74880.000000  0        757133.409       6342362.389      -3025379.375
10 0 59700  74910.000000  0        817333.594       6427276.529      -2822681.047
10 0 59700  74940.000000  0        877063.634       6505425.627      -2617105.974
10 0 59700  74970.000000  0        936233.019       6576730.641      -2408862.782
10 0 59700  75000.000000  0        994751.442       6641119.842      -2198162.970
10 0 59700  75030.000000  0       1052528.925       6698528.898      -1985220.703
10 0 59700  75060.000000  0       1109475.944       6748900.948      -1770252.584
10 0 59700  75090.000000  0       1165503.554       6792186.673      -1553477.437
10 0 59700  75120.000000  0       1220523.520       6828344.354      -1335116.082
10 0 59700  75150.000000  0       1274448.440       6857339.923      -1115391.100
10 0 59700  75180.000000  0       1327191.873       6879147.001       -894526.605
10 0 59700  75210.000000  0       1378668.461       6893746.934       -672748.007
10 0 59700  75240.000000  0       1428794.056       6901128.813       -450281.779
10 0 59700  75270.000000  0       1477485.840       6901289.484       -227355.214
10 0 59700  75300.000000  0       1524662.447       6894233.558         -4196.194
10 0 59700  75330.000000  0       1570244.080       6879973.403        218967.059
10 0 59700  75360.000000  0       1614152.630       6858529.130        441906.215
10 0 59700  75390.000000  0       1656311.792       6829928.576        664393.080
10 0 59700  75420.000000  0       1696647.178       6794207.264        886199.838
10 0 59700  75450.000000  0       1735086.427       6751408.371       1107099.292
10 0 59700  75480.000000  0       1771559.322       6701582.678       1326865.101
10 0 59700  75510.000000  0       1805997.890       6644788.504       1545272.028
10 0 59700  75540.000000  0       1838336.508       6581091.648       1762096.171
10 0 59700  75570.000000  0       1868512.006       6510565.308       1977115.207
99
